{
  "type": "FeatureCollection",
  "features": [
    {
      "type": "Feature",
      "properties": {
        "norad_id": 36744,
        "name": "COMS 1",
        "group": "weather",
        "lat": -3.1516552967910303,
        "lon": 31.491223498702198,
        "alt_km": 35787.538168828774,
        "timestamp": "2025-12-21T11:31:42.483067+00:00",
        "meta_object_name": "COMS 1",
        "meta_object_id": "2010-032A",
        "meta_epoch": "2025-12-20T17:15:48.580128",
        "meta_mean_motion": 1.00272163,
        "meta_eccentricity": 6.966e-05,
        "meta_inclination": 4.3584,
        "meta_ra_of_asc_node": 77.9096,
        "meta_arg_of_pericenter": 203.045,
        "meta_mean_anomaly": 195.7243,
        "meta_ephemeris_type": 0,
        "meta_classification_type": "U",
        "meta_norad_cat_id": 36744,
        "meta_element_set_no": 999,
        "meta_rev_at_epoch": 4930,
        "meta_bstar": 0,
        "meta_mean_motion_dot": -3.24e-06,
        "meta_mean_motion_ddot": 0,
        "tle_line1": "1 36744U 10032A   25354.71931227 -.00000324  00000+0  00000+0 0  9999",
        "tle_line2": "2 36744   4.3584  77.9096 0000696 203.0450 195.7243  1.00272163 49302"
      },
      "geometry": {
        "type": "Point",
        "coordinates": [
          31.491223498702198,
          -3.1516552967910303
        ]
      }
    },
    {
      "type": "Feature",
      "properties": {
        "norad_id": 37214,
        "name": "FENGYUN 3B",
        "group": "weather",
        "lat": -66.25565235204189,
        "lon": -165.57328147371376,
        "alt_km": 848.8307819850306,
        "timestamp": "2025-12-21T11:31:42.483079+00:00",
        "meta_object_name": "FENGYUN 3B",
        "meta_object_id": "2010-059A",
        "meta_epoch": "2025-12-21T05:37:46.258752",
        "meta_mean_motion": 14.14791746,
        "meta_eccentricity": 0.0021655,
        "meta_inclination": 98.9898,
        "meta_ra_of_asc_node": 35.2712,
        "meta_arg_of_pericenter": 333.6126,
        "meta_mean_anomaly": 103.348,
        "meta_ephemeris_type": 0,
        "meta_classification_type": "U",
        "meta_norad_cat_id": 37214,
        "meta_element_set_no": 999,
        "meta_rev_at_epoch": 78226,
        "meta_bstar": -2.6066e-05,
        "meta_mean_motion_dot": -9.6e-07,
        "meta_mean_motion_ddot": 0,
        "tle_line1": "1 37214U 10059A   25355.23456318 -.00000096  00000+0 -26066-4 0  9994",
        "tle_line2": "2 37214  98.9898  35.2712 0021655 333.6126 103.3480 14.14791746782261"
      },
      "geometry": {
        "type": "Point",
        "coordinates": [
          -165.57328147371376,
          -66.25565235204189
        ]
      }
    },
    {
      "type": "Feature",
      "properties": {
        "norad_id": 37849,
        "name": "SUOMI NPP",
        "group": "weather",
        "lat": -56.28881380335621,
        "lon": 99.35271443151936,
        "alt_km": 835.2587095497847,
        "timestamp": "2025-12-21T11:31:42.483091+00:00",
        "meta_object_name": "SUOMI NPP",
        "meta_object_id": "2011-061A",
        "meta_epoch": "2025-12-17T23:31:21.474624",
        "meta_mean_motion": 14.19515682,
        "meta_eccentricity": 0.00023932,
        "meta_inclination": 98.7779,
        "meta_ra_of_asc_node": 289.2746,
        "meta_arg_of_pericenter": 111.1248,
        "meta_mean_anomaly": 249.0184,
        "meta_ephemeris_type": 0,
        "meta_classification_type": "U",
        "meta_norad_cat_id": 37849,
        "meta_element_set_no": 999,
        "meta_rev_at_epoch": 73273,
        "meta_bstar": 4.8615036e-05,
        "meta_mean_motion_dot": 5.8e-07,
        "meta_mean_motion_ddot": 0,
        "tle_line1": "1 37849U 11061A   25351.98010966  .00000058  00000+0  48615-4 0  9995",
        "tle_line2": "2 37849  98.7779 289.2746 0002393 111.1248 249.0184 14.19515682732735"
      },
      "geometry": {
        "type": "Point",
        "coordinates": [
          99.35271443151936,
          -56.28881380335621
        ]
      }
    },
    {
      "type": "Feature",
      "properties": {
        "norad_id": 38552,
        "name": "METEOSAT-10 (MSG-3)",
        "group": "weather",
        "lat": -1.601989247362521,
        "lon": -96.52996340784202,
        "alt_km": 35783.71814650019,
        "timestamp": "2025-12-21T11:31:42.483103+00:00",
        "meta_object_name": "METEOSAT-10 (MSG-3)",
        "meta_object_id": "2012-035B",
        "meta_epoch": "2025-12-21T01:12:55.511136",
        "meta_mean_motion": 1.00276728,
        "meta_eccentricity": 7.04e-05,
        "meta_inclination": 4.247,
        "meta_ra_of_asc_node": 61.7008,
        "meta_arg_of_pericenter": 268.7079,
        "meta_mean_anomaly": 137.9997,
        "meta_ephemeris_type": 0,
        "meta_classification_type": "U",
        "meta_norad_cat_id": 38552,
        "meta_element_set_no": 999,
        "meta_rev_at_epoch": 4907,
        "meta_bstar": 0,
        "meta_mean_motion_dot": 1.6e-07,
        "meta_mean_motion_ddot": 0,
        "tle_line1": "1 38552U 12035B   25355.05064249  .00000016  00000+0  00000+0 0  9999",
        "tle_line2": "2 38552   4.2470  61.7008 0000704 268.7079 137.9997  1.00276728 49072"
      },
      "geometry": {
        "type": "Point",
        "coordinates": [
          -96.52996340784202,
          -1.601989247362521
        ]
      }
    },
    {
      "type": "Feature",
      "properties": {
        "norad_id": 38771,
        "name": "METOP-B",
        "group": "weather",
        "lat": 30.567242739954004,
        "lon": -129.53386684267016,
        "alt_km": 816.8038780472898,
        "timestamp": "2025-12-21T11:31:42.483114+00:00",
        "meta_object_name": "METOP-B",
        "meta_object_id": "2012-049A",
        "meta_epoch": "2025-12-21T04:04:21.332640",
        "meta_mean_motion": 14.21411284,
        "meta_eccentricity": 0.0003185,
        "meta_inclination": 98.6786,
        "meta_ra_of_asc_node": 44.9851,
        "meta_arg_of_pericenter": 126.3272,
        "meta_mean_anomaly": 233.82,
        "meta_ephemeris_type": 0,
        "meta_classification_type": "U",
        "meta_norad_cat_id": 38771,
        "meta_element_set_no": 999,
        "meta_rev_at_epoch": 68797,
        "meta_bstar": 6.2638e-05,
        "meta_mean_motion_dot": 9.3e-07,
        "meta_mean_motion_ddot": 0,
        "tle_line1": "1 38771U 12049A   25355.16969135  .00000093  00000+0  62638-4 0  9992",
        "tle_line2": "2 38771  98.6786  44.9851 0003185 126.3272 233.8200 14.21411284687976"
      },
      "geometry": {
        "type": "Point",
        "coordinates": [
          -129.53386684267016,
          30.567242739954004
        ]
      }
    },
    {
      "type": "Feature",
      "properties": {
        "norad_id": 39216,
        "name": "INSAT-3D",
        "group": "weather",
        "lat": -1.1450365628079973,
        "lon": 32.72815635751741,
        "alt_km": 35791.8128392457,
        "timestamp": "2025-12-21T11:31:42.483127+00:00",
        "meta_object_name": "INSAT-3D",
        "meta_object_id": "2013-038B",
        "meta_epoch": "2025-12-21T00:30:38.783808",
        "meta_mean_motion": 1.00276813,
        "meta_eccentricity": 0.0001804,
        "meta_inclination": 1.465,
        "meta_ra_of_asc_node": 84.9054,
        "meta_arg_of_pericenter": 152.2631,
        "meta_mean_anomaly": 349.8222,
        "meta_ephemeris_type": 0,
        "meta_classification_type": "U",
        "meta_norad_cat_id": 39216,
        "meta_element_set_no": 999,
        "meta_rev_at_epoch": 4529,
        "meta_bstar": 0,
        "meta_mean_motion_dot": -3.17e-06,
        "meta_mean_motion_ddot": 0,
        "tle_line1": "1 39216U 13038B   25355.02128222 -.00000317  00000+0  00000+0 0  9995",
        "tle_line2": "2 39216   1.4650  84.9054 0001804 152.2631 349.8222  1.00276813 45290"
      },
      "geometry": {
        "type": "Point",
        "coordinates": [
          32.72815635751741,
          -1.1450365628079973
        ]
      }
    },
    {
      "type": "Feature",
      "properties": {
        "norad_id": 39260,
        "name": "FENGYUN 3C",
        "group": "weather",
        "lat": -36.03947754424462,
        "lon": 146.5036584896978,
        "alt_km": 838.7638851673164,
        "timestamp": "2025-12-21T11:31:42.483137+00:00",
        "meta_object_name": "FENGYUN 3C",
        "meta_object_id": "2013-052A",
        "meta_epoch": "2025-12-21T05:25:16.953024",
        "meta_mean_motion": 14.15698648,
        "meta_eccentricity": 0.0014754,
        "meta_inclination": 98.4772,
        "meta_ra_of_asc_node": 332.4912,
        "meta_arg_of_pericenter": 171.3551,
        "meta_mean_anomaly": 188.788,
        "meta_ephemeris_type": 0,
        "meta_classification_type": "U",
        "meta_norad_cat_id": 39260,
        "meta_element_set_no": 999,
        "meta_rev_at_epoch": 63338,
        "meta_bstar": 4.4854e-05,
        "meta_mean_motion_dot": 4.7e-07,
        "meta_mean_motion_ddot": 0,
        "tle_line1": "1 39260U 13052A   25355.22589066  .00000047  00000+0  44854-4 0  9998",
        "tle_line2": "2 39260  98.4772 332.4912 0014754 171.3551 188.7880 14.15698648633382"
      },
      "geometry": {
        "type": "Point",
        "coordinates": [
          146.5036584896978,
          -36.03947754424462
        ]
      }
    }
  ]
}